      2.10          N: GNSS NAV DATA                        RINEX VERSION / TYPE
fic2rin                                 09/16/2022 00:17:28 PGM / RUN BY / DATE
                                                            END OF HEADER
13 22  9 15 20  0  0.0  .388158950955D-03  .727595761418D-11  .000000000000D+00
     .720000000000D+02 -.229375000000D+02  .466483716634D-08  .194479598876D+01
    -.119954347610D-05  .643416901585D-02  .719912350178D-05  .515367290878D+04
     .417600000000D+06 -.173225998878D-06  .283148800730D+01 -.119209289551D-06
     .969326641763D+00  .245468750000D+03  .933898676263D+00 -.796890336538D-08
    -.617882880159D-10  .100000000000D+01  .222700000000D+04  .000000000000D+00
     .240000000000D+01  .000000000000D+00 -.111758708954D-07  .720000000000D+02
     .410400000000D+06  .400000000000D+01
22 22  9 15 20  0  0.0  .328458845615D-03  .682121026330D-11  .000000000000D+00
     .760000000000D+02 -.303125000000D+02  .472948271622D-08  .221569667611D+01
    -.171177089214D-05  .134573981632D-01  .672042369843D-05  .515373341179D+04
     .417600000000D+06  .949949026108D-07  .277833833704D+01 -.234693288803D-06
     .962056402654D+00  .248875000000D+03 -.184457882232D+01 -.786568478020D-08
    -.154292141173D-09  .100000000000D+01  .222700000000D+04  .000000000000D+00
     .240000000000D+01  .000000000000D+00 -.791624188423D-08  .760000000000D+02
     .410400000000D+06  .400000000000D+01
17 22  9 15 20  0  0.0  .659464858472D-03  .375166564481D-11  .000000000000D+00
     .590000000000D+02 -.168437500000D+02  .402695345306D-08  .243093579848D+01
    -.836327672005D-06  .137120236177D-01  .342167913914D-05  .515362077522D+04
     .417600000000D+06  .130385160446D-06 -.383914483922D+00 -.745058059692D-08
     .977631605755D+00  .317437500000D+03 -.148209108361D+01 -.787568519676D-08
    -.190007914592D-09  .100000000000D+01  .222700000000D+04  .000000000000D+00
     .240000000000D+01  .000000000000D+00 -.111758708954D-07  .590000000000D+02
     .410400000000D+06  .400000000000D+01
18 22  9 15 20  0  0.0  .474057160318D-04 -.127329258248D-10  .000000000000D+00
     .700000000000D+02 -.530937500000D+02  .399623788792D-08  .457353032944D+00
    -.277720391750D-05  .283098209184D-02  .793673098087D-05  .515372706604D+04
     .417600000000D+06  .521540641785D-07  .619942911294D+00  .279396772385D-07
     .972540886369D+00  .232250000000D+03  .306611146716D+01 -.788604277105D-08
     .950039572962D-10  .100000000000D+01  .222700000000D+04  .000000000000D+00
     .240000000000D+01  .000000000000D+00 -.838190317154D-08  .326000000000D+03
     .410400000000D+06  .400000000000D+01
11 22  9 15 20  0  0.0 -.167819671333D-04 -.284217094304D-11  .000000000000D+00
     .910000000000D+02 -.586250000000D+02  .419660337680D-08  .212830580631D+01
    -.313296914101D-05  .722264638171D-03  .791996717453D-05  .515364048195D+04
     .417600000000D+06 -.130385160446D-07  .654061628018D+00 -.353902578354D-07
     .963933600115D+00  .224531250000D+03  .312411555019D+01 -.794425948172D-08
     .842892252703D-10  .100000000000D+01  .222700000000D+04  .000000000000D+00
     .240000000000D+01  .000000000000D+00 -.838190317154D-08  .859000000000D+03
     .410400000000D+06  .400000000000D+01
20 22  9 15 20  0  0.0  .486153643578D-03 -.306954461848D-11  .000000000000D+00
     .860000000000D+02 -.173437500000D+02  .492163357722D-08  .127564129887D+01
    -.106729567051D-05  .476822629571D-02  .780448317528D-05  .515365044975D+04
     .417600000000D+06  .167638063431D-07  .148705794797D+01  .726431608200D-07
     .944461686495D+00  .222468750000D+03 -.309821448173D+01 -.818784105645D-08
     .369658254893D-09  .100000000000D+01  .222700000000D+04  .000000000000D+00
     .485000000000D+01  .000000000000D+00 -.838190317154D-08  .860000000000D+02
     .410400000000D+06  .400000000000D+01
25 22  9 15 20  0  0.0  .372379086912D-03  .409272615798D-11  .000000000000D+00
     .112000000000D+03  .763750000000D+02  .460376319379D-08 -.135172785543D+01
     .400282442570D-05  .105267114704D-01  .623054802418D-05  .515362160873D+04
     .417600000000D+06  .251457095146D-06 -.150188800204D+01  .143423676491D-06
     .955208633805D+00  .257875000000D+03  .100442005399D+01 -.813891044686D-08
    -.746459664470D-10  .100000000000D+01  .222700000000D+04  .000000000000D+00
     .340000000000D+01  .000000000000D+00  .558793544769D-08  .112000000000D+03
     .410400000000D+06  .400000000000D+01
28 22  9 15 20  0  0.0  .337982550263D-03 -.238742359215D-11  .000000000000D+00
     .103000000000D+03  .970625000000D+02  .423053336155D-08  .285805862264D+01
     .507384538651D-05  .164656533161D-01  .651367008686D-05  .515366747475D+04
     .417600000000D+06  .214204192162D-06 -.140066457178D+01  .633299350739D-07
     .966681621507D+00  .253562500000D+03 -.126328877703D+01 -.778460997454D-08
    -.460733477113D-10  .100000000000D+01  .222700000000D+04  .000000000000D+00
     .340000000000D+01  .630000000000D+02 -.111758708954D-07  .103000000000D+03
     .410400000000D+06  .400000000000D+01
2  22  9 15 22  0  0.0 -.645907595754D-03  .136424205266D-11  .000000000000D+00
     .190000000000D+02 -.702500000000D+02  .423481925436D-08  .819371823017D+00
    -.384263694286D-05  .199879242573D-01  .767968595028D-05  .515489628983D+04
     .424800000000D+06 -.193715095520D-06  .521598597441D+00 -.296160578728D-06
     .966682374910D+00  .238656250000D+03 -.139475592612D+01 -.829784563858D-08
    -.642883921553D-10  .100000000000D+01  .222700000000D+04  .000000000000D+00
     .240000000000D+01  .000000000000D+00 -.172294676304D-07  .190000000000D+02
     .417600000000D+06  .400000000000D+01
1  22  9 15 22  0  0.0  .283321365714D-03 -.648014975013D-11  .000000000000D+00
     .410000000000D+02 -.607187500000D+02  .368408202823D-08  .121808823056D+01
    -.323541462421D-05  .120037600864D-01  .855326652527D-05  .515366211319D+04
     .424800000000D+06 -.158324837685D-06  .615198071092D+00  .521540641785D-07
     .988703508133D+00  .231156250000D+03  .943519340499D+00 -.784139805428D-08
    -.914323799542D-10  .100000000000D+01  .222700000000D+04  .000000000000D+00
     .240000000000D+01  .000000000000D+00  .512227416039D-08  .410000000000D+02
     .417600000000D+06  .400000000000D+01
5  22  9 15 22  0  0.0 -.968030653894D-04 -.136424205266D-11  .000000000000D+00
     .700000000000D+02 -.191250000000D+02  .445375694543D-08 -.253539045783D+01
    -.124424695969D-05  .612355617341D-02  .769644975662D-05  .515378491402D+04
     .424800000000D+06  .106170773506D-06  .160496540009D+01 -.130385160446D-07
     .962058974464D+00  .228406250000D+03  .111046099198D+01 -.789604318761D-08
     .487163149443D-09  .100000000000D+01  .222700000000D+04  .000000000000D+00
     .240000000000D+01  .000000000000D+00 -.111758708954D-07  .700000000000D+02
     .417600000000D+06  .400000000000D+01
3  22  9 15 22  0  0.0 -.351526308805D-03 -.625277607469D-11  .000000000000D+00
     .790000000000D+02 -.721875000000D+01  .423303346569D-08  .112509509696D+00
    -.558793544769D-06  .451777374838D-02  .829808413982D-05  .515355146027D+04
     .424800000000D+06 -.745058059692D-07  .164818679540D+01  .132247805595D-06
     .975034128874D+00  .232062500000D+03  .105675377877D+01 -.789747181854D-08
     .475019786481D-09  .100000000000D+01  .222700000000D+04  .000000000000D+00
     .340000000000D+01  .000000000000D+00  .186264514923D-08  .790000000000D+02
     .417600000000D+06  .400000000000D+01
